{
  "type": "FeatureCollection",
  "features": [
    {
      "type": "Feature",
      "properties": {
        "norad_id": 66775,
        "name": "PHI 1",
        "group": "last-30-days",
        "lat": -27.173283363380648,
        "lon": -110.46096878012648,
        "alt_km": 516.9798104195406,
        "timestamp": "2025-12-27T20:30:58.022435+00:00",
        "meta_object_name": "PHI 1",
        "meta_object_id": "2025-276DP",
        "meta_epoch": "2025-12-27T11:41:59.334720",
        "meta_mean_motion": 15.18715732,
        "meta_eccentricity": 0.0002502,
        "meta_inclination": 97.4334,
        "meta_ra_of_asc_node": 73.0208,
        "meta_arg_of_pericenter": 61.4244,
        "meta_mean_anomaly": 298.7242,
        "meta_ephemeris_type": 0,
        "meta_classification_type": "U",
        "meta_norad_cat_id": 66775,
        "meta_element_set_no": 999,
        "meta_rev_at_epoch": 436,
        "meta_bstar": 0.00064524,
        "meta_mean_motion_dot": 0.00013339,
        "meta_mean_motion_ddot": 0,
        "tle_line1": "1 66775U 25276DP  25361.48749230  .00013339  00000+0  64524-3 0  9999",
        "tle_line2": "2 66775  97.4334  73.0208 0002502  61.4244 298.7242 15.18715732  4360"
      },
      "geometry": {
        "type": "Point",
        "coordinates": [
          -110.46096878012648,
          -27.173283363380648
        ]
      }
    },
    {
      "type": "Feature",
      "properties": {
        "norad_id": 66776,
        "name": "TRANSPORTER-15DQ",
        "group": "last-30-days",
        "lat": -30.02048570922835,
        "lon": -110.93210274057098,
        "alt_km": 516.9306714270542,
        "timestamp": "2025-12-27T20:30:58.022447+00:00",
        "meta_object_name": "TRANSPORTER-15DQ",
        "meta_object_id": "2025-276DQ",
        "meta_epoch": "2025-12-27T10:06:22.643424",
        "meta_mean_motion": 15.18769413,
        "meta_eccentricity": 0.0002765,
        "meta_inclination": 97.4374,
        "meta_ra_of_asc_node": 72.9701,
        "meta_arg_of_pericenter": 75.895,
        "meta_mean_anomaly": 284.2591,
        "meta_ephemeris_type": 0,
        "meta_classification_type": "U",
        "meta_norad_cat_id": 66776,
        "meta_element_set_no": 999,
        "meta_rev_at_epoch": 435,
        "meta_bstar": 0.00049315,
        "meta_mean_motion_dot": 0.00010191,
        "meta_mean_motion_ddot": 0,
        "tle_line1": "1 66776U 25276DQ  25361.42109541  .00010191  00000+0  49315-3 0  9993",
        "tle_line2": "2 66776  97.4374  72.9701 0002765  75.8950 284.2591 15.18769413  4356"
      },
      "geometry": {
        "type": "Point",
        "coordinates": [
          -110.93210274057098,
          -30.02048570922835
        ]
      }
    },
    {
      "type": "Feature",
      "properties": {
        "norad_id": 66777,
        "name": "TRANSPORTER-15DR",
        "group": "last-30-days",
        "lat": -46.73644230224555,
        "lon": -114.55253272048614,
        "alt_km": 517.0186250021698,
        "timestamp": "2025-12-27T20:30:58.022457+00:00",
        "meta_object_name": "TRANSPORTER-15DR",
        "meta_object_id": "2025-276DR",
        "meta_epoch": "2025-12-27T11:36:52.492896",
        "meta_mean_motion": 15.19032349,
        "meta_eccentricity": 0.0003515,
        "meta_inclination": 97.4462,
        "meta_ra_of_asc_node": 73.07,
        "meta_arg_of_pericenter": 101.8817,
        "meta_mean_anomaly": 258.2812,
        "meta_ephemeris_type": 0,
        "meta_classification_type": "U",
        "meta_norad_cat_id": 66777,
        "meta_element_set_no": 999,
        "meta_rev_at_epoch": 436,
        "meta_bstar": 0.00069221,
        "meta_mean_motion_dot": 0.00014449,
        "meta_mean_motion_ddot": 0,
        "tle_line1": "1 66777U 25276DR  25361.48394089  .00014449  00000+0  69221-3 0  9991",
        "tle_line2": "2 66777  97.4462  73.0700 0003515 101.8817 258.2812 15.19032349  4362"
      },
      "geometry": {
        "type": "Point",
        "coordinates": [
          -114.55253272048614,
          -46.73644230224555
        ]
      }
    },
    {
      "type": "Feature",
      "properties": {
        "norad_id": 66778,
        "name": "TRANSPORTER-15DS",
        "group": "last-30-days",
        "lat": 30.478407140225535,
        "lon": 68.9216302976812,
        "alt_km": 512.4319157242489,
        "timestamp": "2025-12-27T20:30:58.022468+00:00",
        "meta_object_name": "TRANSPORTER-15DS",
        "meta_object_id": "2025-276DS",
        "meta_epoch": "2025-12-18T19:26:21.991200",
        "meta_mean_motion": 15.16535337,
        "meta_eccentricity": 0.00032319,
        "meta_inclination": 97.4427,
        "meta_ra_of_asc_node": 64.4586,
        "meta_arg_of_pericenter": 41.3734,
        "meta_mean_anomaly": 318.7744,
        "meta_ephemeris_type": 0,
        "meta_classification_type": "U",
        "meta_norad_cat_id": 66778,
        "meta_element_set_no": 999,
        "meta_rev_at_epoch": 304,
        "meta_bstar": 0.00025483693,
        "meta_mean_motion_dot": 4.904e-05,
        "meta_mean_motion_ddot": 0,
        "tle_line1": "1 66778U 25276DS  25352.80997675  .00004904  00000+0  25484-3 0  9996",
        "tle_line2": "2 66778  97.4427  64.4586 0003231  41.3734 318.7744 15.16535337  3043"
      },
      "geometry": {
        "type": "Point",
        "coordinates": [
          68.9216302976812,
          30.478407140225535
        ]
      }
    },
    {
      "type": "Feature",
      "properties": {
        "norad_id": 66791,
        "name": "STARLINK-35867",
        "group": "last-30-days",
        "lat": -19.84941652121319,
        "lon": 4.877370199826485,
        "alt_km": 445.77328323009624,
        "timestamp": "2025-12-27T20:30:58.022478+00:00",
        "meta_object_name": "STARLINK-35867",
        "meta_object_id": "2025-278A",
        "meta_epoch": "2025-12-27T12:00:02.000160",
        "meta_mean_motion": 15.4069927,
        "meta_eccentricity": 0.000133,
        "meta_inclination": 42.9998,
        "meta_ra_of_asc_node": 164.1298,
        "meta_arg_of_pericenter": 288.9788,
        "meta_mean_anomaly": 110.4876,
        "meta_ephemeris_type": 0,
        "meta_classification_type": "U",
        "meta_norad_cat_id": 66791,
        "meta_element_set_no": 999,
        "meta_rev_at_epoch": 533,
        "meta_bstar": 0.0009006,
        "meta_mean_motion_dot": 0.00037501,
        "meta_mean_motion_ddot": 0,
        "tle_line1": "1 66791U 25278A   25361.50002315  .00037501  00000+0  90060-3 0  9999",
        "tle_line2": "2 66791  42.9998 164.1298 0001330 288.9788 110.4876 15.40699270  5331"
      },
      "geometry": {
        "type": "Point",
        "coordinates": [
          4.877370199826485,
          -19.84941652121319
        ]
      }
    },
    {
      "type": "Feature",
      "properties": {
        "norad_id": 66792,
        "name": "STARLINK-35990",
        "group": "last-30-days",
        "lat": -28.729641951834083,
        "lon": 125.79734322024244,
        "alt_km": 416.6225130578332,
        "timestamp": "2025-12-27T20:30:58.022490+00:00",
        "meta_object_name": "STARLINK-35990",
        "meta_object_id": "2025-278B",
        "meta_epoch": "2025-12-27T11:26:00.630816",
        "meta_mean_motion": 15.50620774,
        "meta_eccentricity": 0.0001575,
        "meta_inclination": 43.0003,
        "meta_ra_of_asc_node": 164.044,
        "meta_arg_of_pericenter": 259.7363,
        "meta_mean_anomaly": 100.332,
        "meta_ephemeris_type": 0,
        "meta_classification_type": "U",
        "meta_norad_cat_id": 66792,
        "meta_element_set_no": 999,
        "meta_rev_at_epoch": 414,
        "meta_bstar": 0.0020391,
        "meta_mean_motion_dot": 0.00121337,
        "meta_mean_motion_ddot": 0,
        "tle_line1": "1 66792U 25278B   25361.47639619  .00121337  00000+0  20391-2 0  9999",
        "tle_line2": "2 66792  43.0003 164.0440 0001575 259.7363 100.3320 15.50620774  4149"
      },
      "geometry": {
        "type": "Point",
        "coordinates": [
          125.79734322024244,
          -28.729641951834083
        ]
      }
    },
    {
      "type": "Feature",
      "properties": {
        "norad_id": 66793,
        "name": "STARLINK-36051",
        "group": "last-30-days",
        "lat": -26.530927785322117,
        "lon": 129.42203539917926,
        "alt_km": 416.40826195659156,
        "timestamp": "2025-12-27T20:30:58.022506+00:00",
        "meta_object_name": "STARLINK-36051",
        "meta_object_id": "2025-278C",
        "meta_epoch": "2025-12-27T03:41:14.284320",
        "meta_mean_motion": 15.50602721,
        "meta_eccentricity": 0.00013715,
        "meta_inclination": 42.9994,
        "meta_ra_of_asc_node": 165.9219,
        "meta_arg_of_pericenter": 274.0641,
        "meta_mean_anomaly": 86.0062,
        "meta_ephemeris_type": 0,
        "meta_classification_type": "U",
        "meta_norad_cat_id": 66793,
        "meta_element_set_no": 999,
        "meta_rev_at_epoch": 409,
        "meta_bstar": 0.0013323569,
        "meta_mean_motion_dot": 0.00078677,
        "meta_mean_motion_ddot": 0,
        "tle_line1": "1 66793U 25278C   25361.15363755  .00078677  00000+0  13324-2 0  9996",
        "tle_line2": "2 66793  42.9994 165.9219 0001371 274.0641  86.0062 15.50602721  4093"
      },
      "geometry": {
        "type": "Point",
        "coordinates": [
          129.42203539917926,
          -26.530927785322117
        ]
      }
    }
  ]
}